*******************************************************************************
JPL/HORIZONS                 137108 (1999 AN10)            2021-Sep-22 17:46:13
Rec #:  137108 (+COV) Soln.date: 2021-Sep-11_06:32:00    # obs: 370 (1955-2020)
 
IAU76/J2000 helio. ecliptic osc. elements (au, days, deg., period=Julian yrs):
 
  EPOCH=  2457928.5 ! 2017-Jun-24.00 (TDB)         Residual RMS= .28265
   EC= .5621736926623254   QR= .6386840403409353   TP= 2457710.2866800241
   OM= 314.4008465364025   W=  268.308218435385    IN= 39.93038447886014
   A= 1.458761224798556    MA= 122.0700196499977   ADIST= 2.278838409256177
   PER= 1.76191            N= .559406806           ANGMOM= .01718261
   DAN= 1.01457            DDN= .98145             L= 222.1950914
   B= -39.9094831          MOID= .00010062         TP= 2016-Nov-17.7866800241
 
Asteroid physical parameters (km, seconds, rotational period in hours):
   GM= n.a.                RAD= n.a.               ROTPER= 5.041
   H= 18.09                G= .150                 B-V= n.a.
                           ALBEDO= n.a.            STYP= n.a.
 
ASTEROID comments: 
1: soln ref.= JPL#93, PHA  OCC=0
2: source=ORB
*******************************************************************************
 
 
*******************************************************************************
Ephemeris / WWW_USER Wed Sep 22 17:46:14 2021 Pasadena, USA      / Horizons
*******************************************************************************
Target body name: 137108 (1999 AN10)              {source: JPL#93}
Center body name: Solar System Barycenter (0)     {source: DE441}
Center-site name: BODY CENTER
*******************************************************************************
Start time      : A.D. 2027-Jul-07 00:00:00.0000 TDB
Stop  time      : A.D. 2027-Aug-07 00:00:00.0000 TDB
Step-size       : 720 minutes
*******************************************************************************
Center geodetic : 0.00000000,0.00000000,0.0000000 {E-lon(deg),Lat(deg),Alt(km)}
Center cylindric: 0.00000000,0.00000000,0.0000000 {E-lon(deg),Dxy(km),Dz(km)}
Center radii    : (undefined)                                                  
Small perturbers: Yes                             {source: SB441-N16}
Output units    : KM-S
Output type     : GEOMETRIC cartesian states
Output format   : 3 (position, velocity, LT, range, range-rate)
Reference frame : Ecliptic of J2000.0
*******************************************************************************
Initial IAU76/J2000 heliocentric ecliptic osculating elements (au, days, deg.):
  EPOCH=  2457928.5 ! 2017-Jun-24.00 (TDB)         Residual RMS= .28265        
   EC= .5621736926623254   QR= .6386840403409353   TP= 2457710.2866800241      
   OM= 314.4008465364025   W=  268.308218435385    IN= 39.93038447886014       
  Equivalent ICRF heliocentric cartesian coordinates (au, au/d):
   X= 1.626900388245841E+00  Y=-6.449833664640653E-02  Z= 1.333215596940442E+00
  VX=-9.321047674005359E-04 VY= 5.580825769425524E-03 VZ= 6.809405284164216E-03
Asteroid physical parameters (km, seconds, rotational period in hours):        
   GM= n.a.                RAD= n.a.               ROTPER= 5.041               
   H= 18.09                G= .150                 B-V= n.a.                   
                           ALBEDO= n.a.            STYP= n.a.                  
*******************************************************************************
            JDTDB,            Calendar Date (TDB),                      X,                      Y,                      Z,                     VX,                     VY,                     VZ,                     LT,                     RG,                     RR,
**************************************************************************************************************************************************************************************************************************************************************************
$$SOE
2461615.500000000, A.D. 2027-Jul-29 00:00:00.0000,  8.252706737710136E+07, -1.107092788667252E+08, -1.498804885808026E+07,  3.108231853967872E+01, -9.545360863995533E-02,  1.855005784134678E+01,  4.633048329887571E+02,  1.388952946849790E+08,  1.654246840041093E+01,
2461616.000000000, A.D. 2027-Jul-29 12:00:00.0000,  8.386596872915249E+07, -1.107082848425448E+08, -1.418600099525072E+07,  3.090383787175161E+01,  1.408615488676066E-01,  1.858142027248040E+01,  4.656902139107891E+02,  1.396104138948612E+08,  1.656459320685578E+01,
2461616.500000000, A.D. 2027-Jul-30 00:00:00.0000,  8.519715784700200E+07, -1.106971609308308E+08, -1.338264545643124E+07,  3.072527919440380E+01,  3.735307379674371E-01,  1.861060836455176E+01,  4.680786505701670E+02,  1.403264491917535E+08,  1.658488837378001E+01,
2461617.000000000, A.D. 2027-Jul-30 12:00:00.0000,  8.652063245015852E+07, -1.106760635917824E+08, -1.257807488991725E+07,  3.054669256838447E+01,  6.026023530327915E-01,  1.863768132301232E+01,  4.704698829820499E+02,  1.410433226341611E+08,  1.660340460463539E+01,
2461617.500000000, A.D. 2027-Jul-31 00:00:00.0000,  8.783639237224014E+07, -1.106451471976581E+08, -1.177237941173637E+07,  3.036812582484515E+01,  8.281246447967368E-01,  1.866269718882447E+01,  4.728636583945919E+02,  1.417609584489870E+08,  1.662019159551445E+01,
2461618.000000000, A.D. 2027-Jul-31 12:00:00.0000,  8.914443946682297E+07, -1.106045640415505E+08, -1.096564665424854E+07,  3.018962466654639E+01,  1.050145597984342E+00,  1.868571292190488E+01,  4.752597311489665E+02,  1.424792829895678E+08,  1.663529811107378E+01,
2461618.500000000, A.D. 2027-Aug-01 00:00:00.0000,  9.044477751779950E+07, -1.105544643519832E+08, -1.015796181046847E+07,  3.001123277607135E+01,  1.268712781717378E+00,  1.870678451813671E+01,  4.776578625523284E+02,  1.431982246975887E+08,  1.664877209036821E+01,
2461619.000000000, A.D. 2027-Aug-01 12:00:00.0000,  9.173741215464820E+07, -1.104949963148848E+08, -9.349407672281556E+06,  2.983299193603385E+01,  1.483873153417117E+00,  1.872596717921751E+01,  4.800578207691563E+02,  1.439177140705088E+08,  1.666066079977243E+01,
2461619.500000000, A.D. 2027-Aug-02 00:00:00.0000,  9.302235077329826E+07, -1.104263061056091E+08, -8.540064659610525E+06,  2.965494216975330E+01,  1.695672782447959E+00,  1.874331556915726E+01,  4.824593807397130E+02,  1.446376836371164E+08,  1.667101106306892E+01,
2461620.000000000, A.D. 2027-Aug-02 12:00:00.0000,  9.429960246376550E+07, -1.103485379356658E+08, -7.730010835590862E+06,  2.947712191729651E+01,  1.904156431508564E+00,  1.875888421936016E+01,  4.848623241403012E+02,  1.453580679456136E+08,  1.667986962366034E+01,
2461620.500000000, A.D. 2027-Aug-03 00:00:00.0000,  9.556917794661388E+07, -1.102618341226046E+08, -6.919321899052761E+06,  2.929956827413189E+01,  2.109366875819819E+00,  1.877272820138779E+01,  4.872664394110915E+02,  1.460788035719592E+08,  1.668728374431462E+01,
2461621.000000000, A.D. 2027-Aug-03 12:00:00.0000,  9.683108952195013E+07, -1.101663351990567E+08, -6.108071138137311E+06,  2.912231734457031E+01,  2.311343712774184E+00,  1.878490431071550E+01,  4.896715218993280E+02,  1.467998291628004E+08,  1.669330225913538E+01,
2461621.500000000, A.D. 2027-Aug-04 00:00:00.0000,  9.808535103790767E+07, -1.100621800931812E+08, -5.296329312997401E+06,  2.894540481512256E+01,  2.510121112010736E+00,  1.879547329590924E+01,  4.920773742123474E+02,  1.475210855413054E+08,  1.669797754763211E+01,
2461622.000000000, A.D. 2027-Aug-04 12:00:00.0000,  9.933197789233176E+07, -1.099495064508357E+08, -4.484164398879603E+06,  2.876886697150410E+01,  2.705723161573501E+00,  1.880450441842913E+01,  4.944838069820875E+02,  1.482425159363576E+08,  1.670136955584658E+01,
2461622.500000000, A.D. 2027-Aug-05 00:00:00.0000,  1.005709870961630E+08, -1.098284512692972E+08, -3.671641026879966E+06,  2.859274265864227E+01,  2.898153101222147E+00,  1.881208581331484E+01,  4.968906405163399E+02,  1.489640664775879E+08,  1.670355488461835E+01,
2461623.000000000, A.D. 2027-Aug-05 12:00:00.0000,  1.018023974601838E+08, -1.096991523133069E+08, -2.858819182827093E+06,  2.841707728843010E+01,  3.087364401360915E+00,  1.881835158458657E+01,  4.992977086120281E+02,  1.496856873385677E+08,  1.670465038455610E+01,
2461623.500000000, A.D. 2027-Aug-06 00:00:00.0000,  1.030262300287602E+08, -1.095617519010784E+08, -2.045750736781083E+06,  2.824193033729377E+01,  3.273164308506002E+00,  1.882356847625255E+01,  5.017048686309315E+02,  1.504073357574341E+08,  1.670488778857930E+01,
2461624.000000000, A.D. 2027-Aug-06 12:00:00.0000,  1.042425086938630E+08, -1.094164103471855E+08, -1.232467662020899E+06,  2.806736381035720E+01,  3.454755626501286E+00,  1.882851723656753E+01,  5.041120351656818E+02,  1.511289861297022E+08,  1.670493518663536E+01,
2461624.500000000, A.D. 2027-Aug-07 00:00:00.0000,  1.054512484249539E+08, -1.092633892713193E+08, -4.189189965986386E+05,  2.789215278671961E+01,  3.626280075586940E+00,  1.883743793557613E+01,  5.065193523528914E+02,  1.518506816664414E+08,  1.670819842671604E+01,
